[
    {
        "Altitude(m)": 704234.8952346215,
        "Argument of Periapsis(deg)": 0.004556048474650827,
        "Eccentricity": 0.0,
        "Inclination(deg)": 45.0,
        "Latitude(deg)": 29.79956967589954,
        "Longitude(deg)": -0.014746738719202717,
        "Mean Anomaly(deg)": -224.47761334100767,
        "RAAN(deg)": 314.99569922341675,
        "Satellite Name": "Constellation 1 1394",
        "Satellite Number": 1394,
        "Semi-Major Axis(m)": 7083131.272910544,
        "Time(s)": 76
    },
    {
        "Altitude(m)": 704229.1910417686,
        "Argument of Periapsis(deg)": 0.004615996480896233,
        "Eccentricity": 0.0,
        "Inclination(deg)": 45.0,
        "Latitude(deg)": 29.764110430450604,
        "Longitude(deg)": 0.037963690426454755,
        "Mean Anomaly(deg)": -224.41691220075782,
        "RAAN(deg)": 314.99564263425117,
        "Satellite Name": "Constellation 1 1394",
        "Satellite Number": 1394,
        "Semi-Major Axis(m)": 7083131.272910544,
        "Time(s)": 77
    },
    {
        "Altitude(m)": 704223.4914238091,
        "Argument of Periapsis(deg)": 0.004675944487141638,
        "Eccentricity": 0.0,
        "Inclination(deg)": 45.0,
        "Latitude(deg)": 29.728626615970573,
        "Longitude(deg)": 0.09063412641675717,
        "Mean Anomaly(deg)": -224.35621106050786,
        "RAAN(deg)": 314.99558604508553,
        "Satellite Name": "Constellation 1 1394",
        "Satellite Number": 1394,
        "Semi-Major Axis(m)": 7083131.272910544,
        "Time(s)": 78
    },
    {
        "Altitude(m)": 704217.7964200352,
        "Argument of Periapsis(deg)": 0.004735892493387044,
        "Eccentricity": 0.0,
        "Inclination(deg)": 45.0,
        "Latitude(deg)": 29.693118284340542,
        "Longitude(deg)": 0.1432646272816082,
        "Mean Anomaly(deg)": -224.29550992025796,
        "RAAN(deg)": 314.99552945592,
        "Satellite Name": "Constellation 1 1394",
        "Satellite Number": 1394,
        "Semi-Major Axis(m)": 7083131.272910544,
        "Time(s)": 79
    },
    {
        "Altitude(m)": 704212.1060697174,
        "Argument of Periapsis(deg)": 0.004795840499632449,
        "Eccentricity": 0.0,
        "Inclination(deg)": 45.0,
        "Latitude(deg)": 29.65758548736888,
        "Longitude(deg)": 0.19585525110432128,
        "Mean Anomaly(deg)": -224.23480878000805,
        "RAAN(deg)": 314.9954728667544,
        "Satellite Name": "Constellation 1 1394",
        "Satellite Number": 1394,
        "Semi-Major Axis(m)": 7083131.272910544,
        "Time(s)": 80
    },
    {
        "Altitude(m)": 704206.4204121312,
        "Argument of Periapsis(deg)": 0.004855788505877855,
        "Eccentricity": 0.0,
        "Inclination(deg)": 45.0,
        "Latitude(deg)": 29.62202827679147,
        "Longitude(deg)": 0.24840605602092636,
        "Mean Anomaly(deg)": -224.17410763975812,
        "RAAN(deg)": 314.9954162775889,
        "Satellite Name": "Constellation 1 1394",
        "Satellite Number": 1394,
        "Semi-Major Axis(m)": 7083131.272910544,
        "Time(s)": 81
    },
    {
        "Altitude(m)": 704200.7394865442,
        "Argument of Periapsis(deg)": 0.00491573651212326,
        "Eccentricity": 0.0,
        "Inclination(deg)": 45.0,
        "Latitude(deg)": 29.586446704271516,
        "Longitude(deg)": 0.3009169321222834,
        "Mean Anomaly(deg)": -224.11340649950827,
        "RAAN(deg)": 314.9953596884233,
        "Satellite Name": "Constellation 1 1394",
        "Satellite Number": 1394,
        "Semi-Major Axis(m)": 7083131.272910544,
        "Time(s)": 82
    },
    {
        "Altitude(m)": 704195.0633322056,
        "Argument of Periapsis(deg)": 0.004975684518368666,
        "Eccentricity": 0.0,
        "Inclination(deg)": 45.0,
        "Latitude(deg)": 29.550840821400566,
        "Longitude(deg)": 0.3533882738416205,
        "Mean Anomaly(deg)": -224.0527053592584,
        "RAAN(deg)": 314.9953030992577,
        "Satellite Name": "Constellation 1 1394",
        "Satellite Number": 1394,
        "Semi-Major Axis(m)": 7083131.272910544,
        "Time(s)": 83
    },
    {
        "Altitude(m)": 704189.3919883785,
        "Argument of Periapsis(deg)": 0.005035632524614072,
        "Eccentricity": 0.0,
        "Inclination(deg)": 45.0,
        "Latitude(deg)": 29.51521067969696,
        "Longitude(deg)": 0.40581997137197207,
        "Mean Anomaly(deg)": -223.99200421900846,
        "RAAN(deg)": 314.99524651009216,
        "Satellite Name": "Constellation 1 1394",
        "Satellite Number": 1394,
        "Semi-Major Axis(m)": 7083131.272910544,
        "Time(s)": 84
    },
    {
        "Altitude(m)": 704183.725494296,
        "Argument of Periapsis(deg)": 0.0050955805308594785,
        "Eccentricity": 0.0,
        "Inclination(deg)": 45.0,
        "Latitude(deg)": 29.479556330607,
        "Longitude(deg)": 0.4582120830531886,
        "Mean Anomaly(deg)": -223.9313030787586,
        "RAAN(deg)": 314.9951899209266,
        "Satellite Name": "Constellation 1 1394",
        "Satellite Number": 1394,
        "Semi-Major Axis(m)": 7083131.272910544,
        "Time(s)": 85
    },
    {
        "Altitude(m)": 704178.0638892078,
        "Argument of Periapsis(deg)": 0.005155528537104883,
        "Eccentricity": 0.0,
        "Inclination(deg)": 45.0,
        "Latitude(deg)": 29.443877825504636,
        "Longitude(deg)": 0.5105646672745866,
        "Mean Anomaly(deg)": -223.87060193850863,
        "RAAN(deg)": 314.99513333176105,
        "Satellite Name": "Constellation 1 1394",
        "Satellite Number": 1394,
        "Semi-Major Axis(m)": 7083131.272910544,
        "Time(s)": 86
    },
    {
        "Altitude(m)": 704172.4072123339,
        "Argument of Periapsis(deg)": 0.0052154765433502885,
        "Eccentricity": 0.0,
        "Inclination(deg)": 45.0,
        "Latitude(deg)": 29.40817521569161,
        "Longitude(deg)": 0.5628777824742912,
        "Mean Anomaly(deg)": -223.8099007982588,
        "RAAN(deg)": 314.9950767425955,
        "Satellite Name": "Constellation 1 1394",
        "Satellite Number": 1394,
        "Semi-Major Axis(m)": 7083131.272910544,
        "Time(s)": 87
    },
    {
        "Altitude(m)": 704166.7555028971,
        "Argument of Periapsis(deg)": 0.005275424549595694,
        "Eccentricity": 0.0,
        "Inclination(deg)": 45.0,
        "Latitude(deg)": 29.37244855239742,
        "Longitude(deg)": 0.6151514871385684,
        "Mean Anomaly(deg)": -223.74919965800888,
        "RAAN(deg)": 314.99502015342983,
        "Satellite Name": "Constellation 1 1394",
        "Satellite Number": 1394,
        "Semi-Major Axis(m)": 7083131.272910544,
        "Time(s)": 88
    },
    {
        "Altitude(m)": 704161.108800112,
        "Argument of Periapsis(deg)": 0.0053353725558411,
        "Eccentricity": 0.0,
        "Inclination(deg)": 45.0,
        "Latitude(deg)": 29.336697886778918,
        "Longitude(deg)": 0.6673856717043319,
        "Mean Anomaly(deg)": -223.68849851775892,
        "RAAN(deg)": 314.9949635642643,
        "Satellite Name": "Constellation 1 1394",
        "Satellite Number": 1394,
        "Semi-Major Axis(m)": 7083131.272910544,
        "Time(s)": 89
    },
    {
        "Altitude(m)": 704155.4671431861,
        "Argument of Periapsis(deg)": 0.005395320562086505,
        "Eccentricity": 0.0,
        "Inclination(deg)": 45.0,
        "Latitude(deg)": 29.300923269922205,
        "Longitude(deg)": 0.719580730946103,
        "Mean Anomaly(deg)": -223.6277973775091,
        "RAAN(deg)": 314.99490697509873,
        "Satellite Name": "Constellation 1 1394",
        "Satellite Number": 1394,
        "Semi-Major Axis(m)": 7083131.272910544,
        "Time(s)": 90
    },
    {
        "Altitude(m)": 704149.8305713132,
        "Argument of Periapsis(deg)": 0.00545526856833191,
        "Eccentricity": 0.0,
        "Inclination(deg)": 45.0,
        "Latitude(deg)": 29.26512475283973,
        "Longitude(deg)": 0.7717365553941342,
        "Mean Anomaly(deg)": -223.5670962372592,
        "RAAN(deg)": 314.9948503859332,
        "Satellite Name": "Constellation 1 1394",
        "Satellite Number": 1394,
        "Semi-Major Axis(m)": 7083131.272910544,
        "Time(s)": 91
    },
    {
        "Altitude(m)": 704144.1991236848,
        "Argument of Periapsis(deg)": 0.005515216574577317,
        "Eccentricity": 0.0,
        "Inclination(deg)": 45.0,
        "Latitude(deg)": 29.229302386472725,
        "Longitude(deg)": 0.823853203720942,
        "Mean Anomaly(deg)": -223.50639509700932,
        "RAAN(deg)": 314.9947937967676,
        "Satellite Name": "Constellation 1 1394",
        "Satellite Number": 1394,
        "Semi-Major Axis(m)": 7083131.272910544,
        "Time(s)": 92
    },
    {
        "Altitude(m)": 704138.5728394776,
        "Argument of Periapsis(deg)": 0.005575164580822722,
        "Eccentricity": 0.0,
        "Inclination(deg)": 45.0,
        "Latitude(deg)": 29.193456221690173,
        "Longitude(deg)": 0.8759307346442664,
        "Mean Anomaly(deg)": -223.44569395675938,
        "RAAN(deg)": 314.99473720760204,
        "Satellite Name": "Constellation 1 1394",
        "Satellite Number": 1394,
        "Semi-Major Axis(m)": 7083131.272910544,
        "Time(s)": 93
    },
    {
        "Altitude(m)": 704132.9517578635,
        "Argument of Periapsis(deg)": 0.005635112587068129,
        "Eccentricity": 0.0,
        "Inclination(deg)": 45.0,
        "Latitude(deg)": 29.15758630928925,
        "Longitude(deg)": 0.9279692069262663,
        "Mean Anomaly(deg)": -223.38499281650948,
        "RAAN(deg)": 314.99468061843646,
        "Satellite Name": "Constellation 1 1394",
        "Satellite Number": 1394,
        "Semi-Major Axis(m)": 7083131.272910544,
        "Time(s)": 94
    }
]